CCSDS_OMM_VERS,COMMENT,CREATION_DATE,ORIGINATOR,OBJECT_NAME,OBJECT_ID,CENTER_NAME,REF_FRAME,TIME_SYSTEM,MEAN_ELEMENT_THEORY,EPOCH,MEAN_MOTION,ECCENTRICITY,INCLINATION,RA_OF_ASC_NODE,ARG_OF_PERICENTER,MEAN_ANOMALY,EPHEMERIS_TYPE,CLASSIFICATION_TYPE,NORAD_CAT_ID,ELEMENT_SET_NO,REV_AT_EPOCH,BSTAR,MEAN_MOTION_DOT,MEAN_MOTION_DDOT,SEMIMAJOR_AXIS,PERIOD,APOAPSIS,PERIAPSIS,OBJECT_TYPE,RCS_SIZE,COUNTRY_CODE,LAUNCH_DATE,SITE,DECAY_DATE,FILE,GP_ID,TLE_LINE0,TLE_LINE1,TLE_LINE2
"2.0","GENERATED VIA SPACE-TRACK.ORG API","2020-06-07T20:32:56","18 SPCS","IRIDIUM 176","2019-002B","EARTH","TEME","UTC","SGP4","2020-06-07T12:00:49.281696","14.72247030","0.00025450","86.6135","193.2736","96.1743","263.9764","0","U","43923","999","7546","0.00001379100000","0.00000112","0.0000000000000","7032.040","97.809","655.695","652.116","PAYLOAD","LARGE","US","2019-01-11","AFWTR","","2760918","155225799","0 IRIDIUM 176","1 43923U 19002B   20159.50057039 +.00000112 +00000-0 +13791-4 0  9998","2 43923 086.6135 193.2736 0002545 096.1743 263.9764 14.72247030075468"
"2.0","GENERATED VIA SPACE-TRACK.ORG API","2020-06-07T02:38:14","18 SPCS","SL-18 DEB","1993-014BJ","EARTH","TEME","UTC","SGP4","2020-06-06T19:57:18.884448","14.80835492","0.00680550","75.7398","213.7690","248.0019","111.3927","0","U","35359","999","68071","0.00038168000000","0.00003044","0.0000000000000","7004.825","97.242","674.361","579.018","DEBRIS","SMALL","CIS","1993-03-25","PKMTR","","2760705","155194406","0 SL-18 DEB","1 35359U 93014BJ  20158.83146857 +.00003044 +00000-0 +38168-3 0  9990","2 35359 075.7398 213.7690 0068055 248.0019 111.3927 14.80835492680712"
"2.0","GENERATED VIA SPACE-TRACK.ORG API","2020-06-07T20:32:56","18 SPCS","SL-18 DEB","1993-014BJ","EARTH","TEME","UTC","SGP4","2020-06-06T19:57:18.884448","14.80835492","0.00680550","75.7398","213.7690","248.0019","111.3927","0","U","35359","999","68137","0.00038168000000","0.00003044","0.0000000000000","7004.825","97.242","674.361","579.018","DEBRIS","SMALL","CIS","1993-03-25","PKMTR","","2760918","155221409","0 SL-18 DEB","1 35359U 93014BJ  20158.83146857 +.00003044 +00000-0 +38168-3 0  9990","2 35359 075.7398 213.7690 0068055 248.0019 111.3927 14.80835492681375"
"2.0","GENERATED VIA SPACE-TRACK.ORG API","2020-06-07T02:38:14","18 SPCS","IRIDIUM 176","2019-002B","EARTH","TEME","UTC","SGP4","2020-06-06T14:48:27.647424","14.72247186","0.00024820","86.6133","193.6422","96.0723","264.0777","0","U","43923","999","7533","0.00001745100000","0.00000135","0.0000000000000","7032.040","97.809","655.650","652.159","PAYLOAD","LARGE","US","2019-01-11","AFWTR","","2760705","155201361","0 IRIDIUM 176","1 43923U 19002B   20158.61698666 +.00000135 +00000-0 +17451-4 0  9998","2 43923 086.6133 193.6422 0002482 096.0723 264.0777 14.72247186075333"
"2.0","GENERATED VIA SPACE-TRACK.ORG API","2020-06-06T16:43:21","18 SPCS","IRIDIUM 176","2019-002B","EARTH","TEME","UTC","SGP4","2020-06-06T13:10:35.215680","14.72247202","0.00024830","86.6134","193.6707","96.0272","264.1229","0","U","43923","999","7532","0.00001769800000","0.00000136","0.0000000000000","7032.040","97.809","655.651","652.159","PAYLOAD","LARGE","US","2019-01-11","AFWTR","","2760595","155179479","0 IRIDIUM 176","1 43923U 19002B   20158.54901870 +.00000136 +00000-0 +17698-4 0  9998","2 43923 086.6134 193.6707 0002483 096.0272 264.1229 14.72247202075321"
"2.0","GENERATED VIA SPACE-TRACK.ORG API","2020-06-06T15:16:09","18 SPCS","SL-18 DEB","1993-014BJ","EARTH","TEME","UTC","SGP4","2020-06-06T10:13:35.094432","14.80832696","0.00680240","75.7399","214.4849","249.0031","110.3869","0","U","35359","999","68131","0.00037739000000","0.00003009","0.0000000000000","7004.833","97.242","674.348","579.049","DEBRIS","SMALL","CIS","1993-03-25","PKMTR","","2760579","155159818","0 SL-18 DEB","1 35359U 93014BJ  20158.42610063  .00003009  00000-0  37739-3 0  9994","2 35359  75.7399 214.4849 0068024 249.0031 110.3869 14.80832696681312"
"2.0","GENERATED VIA SPACE-TRACK.ORG API","2020-06-06T15:06:09","18 SPCS","IRIDIUM 176","2019-002B","EARTH","TEME","UTC","SGP4","2020-06-06T08:16:57.916992","14.72247364","0.00024940","86.6133","193.7557","96.2041","263.9460","0","U","43923","999","7529","0.00001797300000","0.00000138","0.0000000000000","7032.039","97.809","655.658","652.150","PAYLOAD","LARGE","US","2019-01-11","AFWTR","","2760557","155159216","0 IRIDIUM 176","1 43923U 19002B   20158.34511478  .00000138  00000-0  17973-4 0  9995","2 43923  86.6133 193.7557 0002494  96.2041 263.9460 14.72247364 75291"
"2.0","GENERATED VIA SPACE-TRACK.ORG API","2020-06-06T07:06:09","18 SPCS","IRIDIUM 176","2019-002B","EARTH","TEME","UTC","SGP4","2020-06-05T19:13:58.476864","14.72258039","0.00025420","86.6136","193.9827","95.2967","264.8540","0","U","43923","999","7521","0.00001834300000","0.00000140","0.0000000000000","7032.005","97.808","655.658","652.083","PAYLOAD","LARGE","US","2019-01-11","AFWTR","","2760323","155153794","0 IRIDIUM 176","1 43923U 19002B   20157.80137126  .00000140  00000-0  18343-4 0  9994","2 43923  86.6136 193.9827 0002542  95.2967 264.8540 14.72258039 75218"
"2.0","GENERATED VIA SPACE-TRACK.ORG API","2020-06-06T01:51:42","18 SPCS","IRIDIUM 176","2019-002B","EARTH","TEME","UTC","SGP4","2020-06-05T14:20:21.312960","14.72257977","0.00025330","86.6136","194.0678","95.2942","264.8564","0","U","43923","999","7518","0.00001792000000","0.00000138","0.0000000000000","7032.005","97.808","655.652","652.089","PAYLOAD","LARGE","US","2019-01-11","AFWTR","","2760205","155148317","0 IRIDIUM 176","1 43923U 19002B   20157.59746890 +.00000138 +00000-0 +17920-4 0  9991","2 43923 086.6136 194.0678 0002533 095.2942 264.8564 14.72257977075189"
"2.0","GENERATED VIA SPACE-TRACK.ORG API","2020-06-05T18:39:15","18 SPCS","IRIDIUM 176","2019-002B","EARTH","TEME","UTC","SGP4","2020-06-05T12:42:28.923552","14.72257986","0.00025350","86.6136","194.0962","95.2809","264.8698","0","U","43923","999","7517","0.00001876100000","0.00000143","0.0000000000000","7032.005","97.808","655.653","652.088","PAYLOAD","LARGE","US","2019-01-11","AFWTR","","2760019","155123978","0 IRIDIUM 176","1 43923U 19002B   20157.52950143 +.00000143 +00000-0 +18761-4 0  9992","2 43923 086.6136 194.0962 0002535 095.2809 264.8698 14.72257986075176"
"2.0","GENERATED VIA SPACE-TRACK.ORG API","2020-06-05T18:39:15","18 SPCS","SL-18 DEB","1993-014BJ","EARTH","TEME","UTC","SGP4","2020-06-05T11:31:32.686752","14.80826683","0.00679510","75.7400","216.1556","251.3461","108.0340","0","U","35359","999","68051","0.00039122000000","0.00003120","0.0000000000000","7004.852","97.242","674.316","579.119","DEBRIS","SMALL","CIS","1993-03-25","PKMTR","","2760019","155121519","0 SL-18 DEB","1 35359U 93014BJ  20157.48023943 +.00003120 +00000-0 +39122-3 0  9996","2 35359 075.7400 216.1556 0067951 251.3461 108.0340 14.80826683680518"
"2.0","GENERATED VIA SPACE-TRACK.ORG API","2020-06-05T06:56:09","18 SPCS","SL-18 DEB","1993-014BJ","EARTH","TEME","UTC","SGP4","2020-06-05T03:25:06.034080","14.80824719","0.00679170","75.7400","216.7522","252.1832","107.1937","0","U","35359","999","68112","0.00040081000000","0.00003197","0.0000000000000","7004.859","97.243","674.299","579.149","DEBRIS","SMALL","CIS","1993-03-25","PKMTR","","2759728","155100151","0 SL-18 DEB","1 35359U 93014BJ  20157.14243095  .00003197  00000-0  40081-3 0  9991","2 35359  75.7400 216.7522 0067917 252.1832 107.1937 14.80824719681128"
"2.0","GENERATED VIA SPACE-TRACK.ORG API","2020-06-04T22:36:10","18 SPCS","IRIDIUM 176","2019-002B","EARTH","TEME","UTC","SGP4","2020-06-04T17:08:00.251520","14.72257791","0.00025280","86.6137","194.4366","95.1845","264.9661","0","U","43923","999","7505","0.00001883300000","0.00000143","0.0000000000000","7032.006","97.808","655.649","652.093","PAYLOAD","LARGE","US","2019-01-11","AFWTR","","2759504","155074610","0 IRIDIUM 176","1 43923U 19002B   20156.71389180  .00000143  00000-0  18833-4 0  9999","2 43923  86.6137 194.4366 0002528  95.1845 264.9661 14.72257791 75052"
"2.0","GENERATED VIA SPACE-TRACK.ORG API","2020-06-04T17:49:43","18 SPCS","SL-18 DEB","1993-014BJ","EARTH","TEME","UTC","SGP4","2020-06-04T11:12:12.600864","14.80820183","0.00678780","75.7402","217.9455","253.8596","105.5111","0","U","35359","999","68036","0.00040382000000","0.00003220","0.0000000000000","7004.873","97.243","674.286","579.190","DEBRIS","SMALL","CIS","1993-03-25","PKMTR","","2759240","155060898","0 SL-18 DEB","1 35359U 93014BJ  20156.46681251 +.00003220 +00000-0 +40382-3 0  9996","2 35359 075.7402 217.9455 0067878 253.8596 105.5111 14.80820183680361"
"2.0","GENERATED VIA SPACE-TRACK.ORG API","2020-06-04T17:49:43","18 SPCS","IRIDIUM 176","2019-002B","EARTH","TEME","UTC","SGP4","2020-06-04T05:42:53.523072","14.72257677","0.00025270","86.6137","194.6352","95.3062","264.8444","0","U","43923","999","7498","0.00001918700000","0.00000146","0.0000000000000","7032.006","97.808","655.648","652.094","PAYLOAD","LARGE","US","2019-01-11","AFWTR","","2759240","155067211","0 IRIDIUM 176","1 43923U 19002B   20156.23811948 +.00000146 +00000-0 +19187-4 0  9994","2 43923 086.6137 194.6352 0002527 095.3062 264.8444 14.72257677074983"
"2.0","GENERATED VIA SPACE-TRACK.ORG API","2020-06-03T22:16:09","18 SPCS","IRIDIUM 176","2019-002B","EARTH","TEME","UTC","SGP4","2020-06-03T16:39:54.402624","14.72257487","0.00025190","86.6138","194.8621","95.3742","264.7763","0","U","43923","999","7490","0.00001751700000","0.00000135","0.0000000000000","7032.007","97.808","655.643","652.101","PAYLOAD","LARGE","US","2019-01-11","AFWTR","","2758784","155018872","0 IRIDIUM 176","1 43923U 19002B   20155.69437966  .00000135  00000-0  17517-4 0  9990","2 43923  86.6138 194.8621 0002519  95.3742 264.7763 14.72257487 74905"
